ONEWEB-0387             
1 49313U 21090AL  25033.44758265 -.00000113  00000+0 -31038-3 0  9990
2 49313  87.9259  13.9323 0001792  75.0570 285.0762 13.20769759163858
ONEWEB-0388             
1 49314U 21090AM  25033.47188975  .00001168  00000+0  28836-2 0  9999
2 49314  87.9144  44.3165 0001602  88.9144 271.2172 13.19735514160505
ONEWEB-0389             
1 50469U 21132A   25033.23497943 -.00000005  00000+0 -46041-4 0  9992
2 50469  87.9078 105.4795 0001670  91.5025 268.6298 13.17648117152246
ONEWEB-0390             
1 50470U 21132B   25033.23666483 -.00000025  00000+0 -98198-4 0  9993
2 50470  87.9076 105.4862 0002150  96.8802 263.2574 13.17648655152241
ONEWEB-0391             
1 50471U 21132C   25033.61803268  .00000052  00000+0  10021-3 0  9996
2 50471  87.9085 105.4121 0001791  72.9487 287.1841 13.17648761152299
ONEWEB-0392             
1 50472U 21132D   25033.19278194  .00000147  00000+0  34496-3 0  9991
2 50472  87.9085 105.4662 0001668  85.1935 274.9387 13.17651267152279
ONEWEB-0393             
1 50473U 21132E   25033.24184887 -.00000321  00000+0 -86083-3 0  9998
2 50473  87.9078 105.4537 0001824  96.6198 263.5141 13.17649038152270
ONEWEB-0394             
1 50474U 21132F   25033.52697924 -.00000065  00000+0 -19720-3 0  9990
2 50474  87.9055  74.8327 0001826  94.1741 265.9600 13.18684331155748
